GAOFEN 3                
1 41727U 16049A   20129.51082023 -.00000024  00000-0  58561-5 0  9993
2 41727  98.4131 137.6845 0001885  85.8764 274.2644 14.42212272197118
SKYSAT-C4               
1 41771U 16058B   20129.13849848  .00001156  00000-0  33382-4 0  9995
2 41771  97.2113 200.0095 0002497  92.0714 268.0817 15.37673388202474
SKYSAT-C5               
1 41772U 16058C   20129.50510773  .00000477  00000-0  22703-4 0  9999
2 41772  97.3596 199.9537 0001962  73.8910  53.6125 15.23798561202453
SKYSAT-C2               
1 41773U 16058D   20129.18044705  .00001144  00000-0  32914-4 0  9998
2 41773  97.2117 200.3593 0001917  74.7366 285.4091 15.37801786202508
SKYSAT-C3               
1 41774U 16058E   20129.19243133  .00001180  00000-0  33960-4 0  9998
2 41774  97.2112 200.3490 0003631  81.2983 278.8673 15.37742612202495
ALSAT 1B                
1 41785U 16059C   20129.48007294 -.00000007  00000-0  77855-5 0  9999
2 41785  98.0162 186.4941 0032572  79.3148 281.1726 14.63359142193050
PATHFINDER 1            
1 41787U 16059E   20129.26289596  .00000049  00000-0  18425-4 0  9996
2 41787  98.0197 187.2751 0031598  78.0683 282.4051 14.63727657193061
SCATSAT 1               
1 41790U 16059H   20129.46783975  .00000005  00000-0  12244-4 0  9997
2 41790  98.1646 170.9359 0006986  50.9578 309.2240 14.50909134191427
WORLDVIEW-4 (WV-4)      
1 41848U 16067A   20129.51912396  .00000223  00000-0  78074-5 0  9993
2 41848  97.8463 234.6828 0006365 178.3994 181.7259 15.40512686190683
GOKTURK 1A              
1 41875U 16073A   20129.45737434  .00000001  00000-0  93197-5 0  9998
2 41875  98.1579  24.1445 0001221  69.4780 290.6547 14.62753357182711
RESOURCESAT-2A          
1 41877U 16074A   20129.39605983 -.00000030  00000-0  56944-5 0  9999
2 41877  98.5936 199.6026 0001588 105.3477 254.7877 14.21682050177353
CARTOSAT-2D             
1 41948U 17008A   20129.14511243  .00000397  00000-0  22089-4 0  9991
2 41948  97.4952 187.9046 0008834 127.8133 232.3929 15.19213190178847
SENTINEL-2B             
1 42063U 17013A   20129.36832624 -.00000003  00000-0  15457-4 0  9995
2 42063  98.5709 204.1605 0001139  77.9089 282.2222 14.30813985165641
ZHUHAI-1 02 (CAS 4B)    
1 42759U 17034B   20129.52960020  .00000243  00000-0  28255-4 0  9995
2 42759  43.0186 246.4046 0009882 143.4499 318.1317 15.09808956159930
NUSAT-3 (MILANESAT)     
1 42760U 17034C   20129.50880609  .00000304  00000-0  31546-4 0  9994
2 42760  43.0170 245.2991 0009099 164.2250 292.0833 15.10279490159959
ZHUHAI-1 01 (CAS 4A)    
1 42761U 17034D   20129.54355455  .00000108  00000-0  20028-4 0  9990
2 42761  43.0182 245.6510 0010201 144.1226 325.1739 15.09886218159932
CARTOSAT-2E             
1 42767U 17036C   20129.22902477  .00000417  00000-0  22970-4 0  9996
2 42767  97.4254 188.6128 0008716 171.2790 188.8597 15.19260411159429
FORMOSAT-5              
1 42920U 17049A   20129.51078926 -.00000052  00000-0 -18562-5 0  9996
2 42920  98.2992 209.0041 0011998  92.7907 267.4663 14.50848003143225
SENTINEL-5P             
1 42969U 17064A   20129.07602572 -.00000025  00000-0  91005-5 0  9999
2 42969  98.7333  68.7576 0001189  87.2449 272.8863 14.19553049133023
SKYSAT-C11              
1 42987U 17068A   20129.32338428  .00001325  00000-0  37430-4 0  9991
2 42987  97.2256 244.1537 0009774 186.6824 173.4293 15.38103203139919
SKYSAT-C10              
1 42988U 17068B   20129.11592149  .00001271  00000-0  36046-4 0  9993
2 42988  97.2298 243.7058 0002480 212.3605 147.7488 15.38072378139907
SKYSAT-C9               
1 42989U 17068C   20129.10387451  .00001286  00000-0  36468-4 0  9995
2 42989  97.2259 243.3311 0003337  89.8587 270.3041 15.38063865140092
SKYSAT-C8               
1 42990U 17068D   20129.16145961  .00001298  00000-0  36685-4 0  9995
2 42990  97.2295 244.1323 0002642 167.4721 192.6590 15.38141281139932
SKYSAT-C7               
1 42991U 17068E   20128.88911039  .00001323  00000-0  37431-4 0  9990
2 42991  97.2301 243.8602 0001683 112.8048 247.3376 15.38075948139898
SKYSAT-C6               
1 42992U 17068F   20129.20418900  .00001299  00000-0  36790-4 0  9996
2 42992  97.2314 244.3718 0003569 105.1462 255.0178 15.38077215139959
CARTOSAT-2F             
1 43111U 18004A   20129.55324495  .00000506  00000-0  27157-4 0  9991
2 43111  97.3883 190.1020 0004141 177.4181 318.7590 15.19280797128656
MICROSAT-TD             
1 43128U 18004T   20129.21151043  .00027061  00000-0  15065-3 0  9998
2 43128  96.7562 182.4603 0004788 321.5450  38.5477 15.79420504133037
NUSAT-4 (ADA)           
1 43195U 18015D   20129.56053419  .00001031  00000-0  44851-4 0  9995
2 43195  97.4332 258.5467 0016094 234.9877 186.6279 15.24448377125810
NUSAT-5 (MARYAM)        
1 43204U 18015K   20129.55471388  .00001029  00000-0  44519-4 0  9992
2 43204  97.4333 258.7370 0015518 237.0376 186.1426 15.24654566125420
GAOFEN 1-02             
1 43259U 18031A   20129.46692594  .00000051  00000-0  14649-4 0  9999
2 43259  97.9648 208.3615 0003961 338.0185  22.0857 14.76447973113528
GAOFEN 1-03             
1 43260U 18031B   20129.51212030  .00000027  00000-0  11189-4 0  9999
2 43260  97.9645 208.4172 0006280  46.3992 313.7740 14.76449863113529
GAOFEN 1-04             
1 43262U 18031D   20129.48946994  .00000041  00000-0  13201-4 0  9993
2 43262  97.9653 208.3598 0003632 353.4973   6.6188 14.76452904113513
SENTINEL-3B             
1 43437U 18039A   20129.21749670  .00000006  00000-0  20545-4 0  9998
2 43437  98.6304 196.4844 0000883  81.2279 278.9001 14.26735255106001
GAOFEN 5                
1 43461U 18043A   20129.46787649  .00000017  00000-0  13586-4 0  9994
2 43461  98.1950  67.1899 0002346 129.7733 230.3665 14.57760093106474
GAOFEN 6                
1 43484U 18048A   20129.51661951  .00000016  00000-0  95894-5 0  9999
2 43484  97.9865 209.7761 0010011 156.7344 203.4325 14.76490862104229
GAOFEN 11               
1 43585U 18063A   20129.56012823  .00000545  00000-0  25682-4 0  9995
2 43585  97.3839 209.8137 0016879   4.0880 109.1163 15.23586575 99160
AEOLUS                  
1 43600U 18066A   20129.25019239  .00029631  00000-0  11828-3 0  9993
2 43600  96.7199 136.2507 0006088 100.4008 259.7952 15.86525401 98996
ICESAT-2                
1 43613U 18070A   20129.22319656  .00002316  00000-0  84010-4 0  9990
2 43613  92.0019  50.5432 0003522  94.6643 265.5009 15.28268380 91744
HYSIS                   
1 43719U 18096A   20129.42170673  .00000081  00000-0  18100-4 0  9995
2 43719  97.9056 197.3280 0010740   5.7995 354.3345 14.78734324 77755
KAZSTSAT                
1 43783U 18099AB  20129.18897174 -.00000126  00000-0 -65899-5 0  9994
2 43783  97.7199 201.1938 0007521 325.9953  34.0784 14.93608981 77823
SAUDISAT 5A             
1 43831U 18102A   20129.43602400  .00000686  00000-0  48592-4 0  9996
2 43831  97.5719 206.0181 0013039 297.2375 192.0037 15.08037929 78100
SAUDISAT 5B             
1 43833U 18102C   20129.41821919  .00000073  00000-0  87469-5 0  9991
2 43833  97.5721 206.3401 0013998 306.8807 182.0103 15.08476511 78112
GAOFEN 10R              
1 44622U 19066A   20129.48842528  .00000105  00000-0  20286-4 0  9993
2 44622  97.8144  73.8785 0001672  61.2663 298.8713 14.80663164 32069
CARTOSAT-3              
1 44804U 19081A   20129.48944762  .00000453  00000-0  25031-4 0  9994
2 44804  97.4993 190.5318 0016311  33.5858  81.4447 15.18820128 24734
GAOFEN 12               
1 44819U 19082A   20129.46873817 -.00000009  00000-0  56679-5 0  9992
2 44819  97.9163 152.0431 0002003  94.2214 265.9229 14.80205859 24032
NUSAT-7 (SOPHIE)        
1 45017U 20003B   20129.41829333  .00000807  00000-0  32663-4 0  9998
2 45017  97.3192 196.3140 0011930 223.9974 136.0316 15.27496725 17448
NUSAT-8 (MARIE)         
1 45018U 20003C   20129.43589122  .00000756  00000-0  30979-4 0  9991
2 45018  97.3209 196.3143 0011208 220.1694 139.8718 15.27263646 17448
